OBJECT_NAME,OBJECT_ID,EPOCH,MEAN_MOTION,ECCENTRICITY,INCLINATION,RA_OF_ASC_NODE,ARG_OF_PERICENTER,MEAN_ANOMALY,EPHEMERIS_TYPE,CLASSIFICATION_TYPE,NORAD_CAT_ID,ELEMENT_SET_NO,REV_AT_EPOCH,BSTAR,MEAN_MOTION_DOT,MEAN_MOTION_DDOT
ELEKTRO-L 3,2019-095A,2026-05-12T02:58:10.012800,1.00271861,.0001306,0.1627,78.9786,330.9752,300.4521,0,U,44903,999,2334,0,-.84E-6,0
GONETS-M 14,2019-096A,2026-05-12T05:26:03.678144,12.42868570,.001218,82.5199,106.9349,229.1394,130.8631,0,U,44905,999,28921,-.47111E-3,-.55E-6,0
GONETS-M 15,2019-096B,2026-05-12T04:12:32.527872,12.42870017,.001391,82.5219,107.4223,254.4484,105.5060,0,U,44906,999,28917,.31637E-3,.54E-6,0
GONETS-M 16,2019-096C,2026-05-12T04:51:11.775168,12.42890583,.0009925,82.5165,106.3749,301.7583,58.2529,0,U,44907,999,28916,-.89521E-4,-.3E-7,0
RS-44 & BREEZE-KM R/B,2019-096E,2026-05-12T02:52:33.381984,12.79748073,.0216633,82.5241,3.6755,228.5476,129.6843,0,U,44909,999,29773,-.17063E-4,.6E-7,0
JILIN-1 KUANFU 01,2020-003A,2026-05-12T04:25:59.422656,15.10515291,.0011202,97.5037,206.8466,70.3783,289.8655,0,U,45016,999,34989,.11138E-3,.1774E-4,0
XINGYUN-2 01,2020-028A,2026-05-12T04:48:03.229632,15.11649713,.0008537,97.4865,125.3209,339.2495,20.8387,0,U,45602,999,32940,.75383E-4,.1218E-4,0
XINGYUN-2 02,2020-028B,2026-05-12T04:08:11.861664,15.11384679,.001226,97.5083,138.8012,42.3138,317.9035,0,U,45603,999,32939,.60648E-4,.961E-5,0
HAIYANG-1D,2020-036A,2026-05-12T04:22:57.782208,14.34161590,.0001486,98.4536,74.6485,253.3610,106.7412,0,U,45721,999,30981,.12325E-3,.302E-5,0
M2 PATHFINDER,2020-037E,2026-05-12T01:37:29.508960,15.04516252,.001019,97.8166,322.8955,275.7457,84.2606,0,U,45727,999,32006,.13254E-3,.1794E-4,0
GAOFEN DUOMO (GFDM),2020-042A,2026-05-12T03:54:34.884000,14.76828460,.0010742,97.7766,193.3556,181.8985,178.2187,0,U,45856,999,31569,.26964E-4,.14E-5,0
ZIYUAN 3-03 (ZY 3-03),2020-051A,2026-05-12T03:24:21.748896,15.21471642,.0007089,97.2847,201.0274,80.3429,279.8608,0,U,45939,999,32186,.14547E-3,.3205E-4,0
NEMO-HD,2020-061F,2026-05-12T03:57:59.893056,15.43857689,.0002293,97.1945,194.4978,123.6387,236.5080,0,U,46277,999,31642,.15494E-3,.6941E-4,0
NAPA-1,2020-061BA,2026-05-12T04:16:40.198656,15.63600064,.0001742,97.2490,205.3000,142.1931,217.9451,0,U,46320,999,31610,.45963E-3,.42686E-3,0
JILIN-1 GAOFEN 3E,2020-065D,2026-05-12T03:25:10.276320,15.59685683,.0009676,97.2297,184.0245,290.1335,69.8881,0,U,46457,999,31413,.4129E-3,.32996E-3,0
JILIN-1 GAOFEN 3F,2020-065E,2026-05-12T04:12:55.916352,15.57504209,.0011227,97.2253,181.5493,277.8073,82.1908,0,U,46458,999,31409,.39783E-3,.2929E-3,0
JILIN-1 GAOFEN 3G,2020-065F,2026-05-12T03:43:21.840960,15.65417562,.0012257,97.2326,187.8044,174.7452,185.3939,0,U,46459,999,31429,.46761E-3,.46855E-3,0
JILIN-1 GAOFEN 3H,2020-065G,2026-05-12T04:31:44.016960,15.62974757,.0009165,97.2271,184.3530,121.4796,238.7360,0,U,46460,999,31425,.46511E-3,.42235E-3,0
HAIYANG-2C,2020-066A,2026-05-12T03:54:40.309056,13.83371638,.0010214,65.9980,304.9768,240.6725,119.3323,0,U,46469,999,28451,.3962E-4,-.38E-6,0
HJ-2A,2020-067A,2026-05-12T04:21:23.755680,14.76564766,.0004216,97.8823,211.4018,41.5941,318.5589,0,U,46478,999,30294,.61204E-4,.377E-5,0
HJ-2B,2020-067B,2026-05-12T03:35:46.375584,14.76509888,.0001376,97.8886,212.3661,74.1583,285.9779,0,U,46479,999,30294,.18396E-4,.78E-6,0
GONETS-M 17,2020-068A,2026-05-12T03:30:43.388928,12.42871809,.0023236,82.5018,9.9250,112.3344,248.0202,0,U,46486,999,25468,.25436E-3,.45E-6,0
GONETS-M 18,2020-068B,2026-05-12T04:34:18.080256,12.42870411,.0020579,82.4972,9.0293,108.5105,251.8213,0,U,46487,999,25467,-.97615E-3,-.125E-5,0
GONETS-M 19,2020-068C,2026-05-12T03:59:40.842816,12.42890879,.0014121,82.4997,9.4880,122.0465,238.1988,0,U,46488,999,25477,-.25273E-3,-.25E-6,0
DEKART,2020-068H,2026-05-12T03:17:31.456032,15.36502364,.0010659,97.8757,138.8506,60.9724,299.2585,0,U,46493,999,31023,.22438E-3,.7916E-4,0
NORBI,2020-068J,2026-05-12T03:26:26.699712,15.46906515,.0007677,97.8652,144.9764,45.5766,314.6109,0,U,46494,999,31063,.29082E-3,.14557E-3,0
SALSAT,2020-068K,2026-05-11T23:12:44.826336,15.29256422,.0011562,97.8861,132.8439,73.9396,286.3115,0,U,46495,999,30982,.18044E-3,.5046E-4,0
