ELEKTRO-L 3             
1 44903U 19095A   26132.12372700 -.00000084  00000+0  00000+0 0  9991
2 44903   0.1627  78.9786 0001306 330.9752 300.4521  1.00271861 23345
GONETS-M 14             
1 44905U 19096A   26132.22643146 -.00000055  00000+0 -47111-3 0  9997
2 44905  82.5199 106.9349 0012180 229.1394 130.8631 12.42868570289219
GONETS-M 15             
1 44906U 19096B   26132.17537648  .00000054  00000+0  31637-3 0  9994
2 44906  82.5219 107.4223 0013910 254.4484 105.5060 12.42870017289172
GONETS-M 16             
1 44907U 19096C   26132.20221962 -.00000003  00000+0 -89521-4 0  9990
2 44907  82.5165 106.3749 0009925 301.7583  58.2529 12.42890583289164
RS-44 & BREEZE-KM R/B   
1 44909U 19096E   26132.11983081  .00000006  00000+0 -17063-4 0  9993
2 44909  82.5241   3.6755 0216633 228.5476 129.6843 12.79748073297730
JILIN-1 KUANFU 01       
1 45016U 20003A   26132.18471554  .00001774  00000+0  11138-3 0  9995
2 45016  97.5037 206.8466 0011202  70.3783 289.8655 15.10515291349891
XINGYUN-2 01            
1 45602U 20028A   26132.20003738  .00001218  00000+0  75383-4 0  9997
2 45602  97.4865 125.3209 0008537 339.2495  20.8387 15.11649713329402
XINGYUN-2 02            
1 45603U 20028B   26132.17235951  .00000961  00000+0  60648-4 0  9990
2 45603  97.5083 138.8012 0012260  42.3138 317.9035 15.11384679329396
HAIYANG-1D              
1 45721U 20036A   26132.18261322  .00000302  00000+0  12325-3 0  9999
2 45721  98.4536  74.6485 0001486 253.3610 106.7412 14.34161590309815
M2 PATHFINDER           
1 45727U 20037E   26132.06770265  .00001794  00000+0  13254-3 0  9992
2 45727  97.8166 322.8955 0010190 275.7457  84.2606 15.04516252320064
GAOFEN DUOMO (GFDM)     
1 45856U 20042A   26132.16290375  .00000140  00000+0  26964-4 0  9998
2 45856  97.7766 193.3556 0010742 181.8985 178.2187 14.76828460315692
ZIYUAN 3-03 (ZY 3-03)   
1 45939U 20051A   26132.14191839  .00003205  00000+0  14547-3 0  9991
2 45939  97.2847 201.0274 0007089  80.3429 279.8608 15.21471642321868
NEMO-HD                 
1 46277U 20061F   26132.16527654  .00006941  00000+0  15494-3 0  9990
2 46277  97.1945 194.4978 0002293 123.6387 236.5080 15.43857689316427
NAPA-1                  
1 46320U 20061BA  26132.17824304  .00042686  00000+0  45963-3 0  9992
2 46320  97.2490 205.3000 0001742 142.1931 217.9451 15.63600064316104
JILIN-1 GAOFEN 3E       
1 46457U 20065D   26132.14248005  .00032996  00000+0  41290-3 0  9994
2 46457  97.2297 184.0245 0009676 290.1335  69.8881 15.59685683314137
JILIN-1 GAOFEN 3F       
1 46458U 20065E   26132.17564718  .00029290  00000+0  39783-3 0  9997
2 46458  97.2253 181.5493 0011227 277.8073  82.1908 15.57504209314098
JILIN-1 GAOFEN 3G       
1 46459U 20065F   26132.15511390  .00046855  00000+0  46761-3 0  9994
2 46459  97.2326 187.8044 0012257 174.7452 185.3939 15.65417562314297
JILIN-1 GAOFEN 3H       
1 46460U 20065G   26132.18870390  .00042235  00000+0  46511-3 0  9998
2 46460  97.2271 184.3530 0009165 121.4796 238.7360 15.62974757314252
HAIYANG-2C              
1 46469U 20066A   26132.16296654 -.00000038  00000+0  39620-4 0  9991
2 46469  65.9980 304.9768 0010214 240.6725 119.3323 13.83371638284514
HJ-2A                   
1 46478U 20067A   26132.18152495  .00000377  00000+0  61204-4 0  9996
2 46478  97.8823 211.4018 0004216  41.5941 318.5589 14.76564766302941
HJ-2B                   
1 46479U 20067B   26132.14984231  .00000078  00000+0  18396-4 0  9996
2 46479  97.8886 212.3661 0001376  74.1583 285.9779 14.76509888302945
GONETS-M 17             
1 46486U 20068A   26132.14633552  .00000045  00000+0  25436-3 0  9998
2 46486  82.5018   9.9250 0023236 112.3344 248.0202 12.42871809254688
GONETS-M 18             
1 46487U 20068B   26132.19048704 -.00000125  00000+0 -97615-3 0  9992
2 46487  82.4972   9.0293 0020579 108.5105 251.8213 12.42870411254675
GONETS-M 19             
1 46488U 20068C   26132.16644494 -.00000025  00000+0 -25273-3 0  9998
2 46488  82.4997   9.4880 0014121 122.0465 238.1988 12.42890879254773
DEKART                  
1 46493U 20068H   26132.13716963  .00007916  00000+0  22438-3 0  9996
2 46493  97.8757 138.8506 0010659  60.9724 299.2585 15.36502364310235
NORBI                   
1 46494U 20068J   26132.14336458  .00014557  00000+0  29082-3 0  9996
2 46494  97.8652 144.9764 0007677  45.5766 314.6109 15.46906515310630
SALSAT                  
1 46495U 20068K   26131.96718549  .00005046  00000+0  18044-3 0  9990
2 46495  97.8861 132.8439 0011562  73.9396 286.3115 15.29256422309827
